[{"OBJECT_NAME":"STARLINK-36385","OBJECT_ID":"2026-025AA","EPOCH":"2026-03-03T19:41:51.794304","MEAN_MOTION":15.80856754,"ECCENTRICITY":0.0001113,"INCLINATION":97.2863,"RA_OF_ASC_NODE":174.22,"ARG_OF_PERICENTER":62.9835,"MEAN_ANOMALY":297.1546,"EPHEMERIS_TYPE":0,"CLASSIFICATION_TYPE":"U","NORAD_CAT_ID":67717,"ELEMENT_SET_NO":999,"REV_AT_EPOCH":502,"BSTAR":0.0019703,"MEAN_MOTION_DOT":0.00395645,"MEAN_MOTION_DDOT":0},{"OBJECT_NAME":"CZ-2F DEB","OBJECT_ID":"2026-024E","EPOCH":"2026-02-27T12:10:33.167712","MEAN_MOTION":15.20915897,"ECCENTRICITY":0.02465096,"INCLINATION":50.3169,"RA_OF_ASC_NODE":68.583,"ARG_OF_PERICENTER":240.0171,"MEAN_ANOMALY":117.6115,"EPHEMERIS_TYPE":0,"CLASSIFICATION_TYPE":"U","NORAD_CAT_ID":67718,"ELEMENT_SET_NO":999,"REV_AT_EPOCH":308,"BSTAR":0.0035886422,"MEAN_MOTION_DOT":0.00191604,"MEAN_MOTION_DDOT":0},{"OBJECT_NAME":"CZ-2F DEB","OBJECT_ID":"2026-024F","EPOCH":"2026-03-03T10:19:56.274816","MEAN_MOTION":15.01613849,"ECCENTRICITY":0.03179225,"INCLINATION":49.7921,"RA_OF_ASC_NODE":52.0253,"ARG_OF_PERICENTER":246.3783,"MEAN_ANOMALY":110.3486,"EPHEMERIS_TYPE":0,"CLASSIFICATION_TYPE":"U","NORAD_CAT_ID":67719,"ELEMENT_SET_NO":999,"REV_AT_EPOCH":330,"BSTAR":0.0037658998,"MEAN_MOTION_DOT":0.00154944,"MEAN_MOTION_DDOT":0},{"OBJECT_NAME":"CZ-2F DEB","OBJECT_ID":"2026-024G","EPOCH":"2026-03-03T09:46:04.107936","MEAN_MOTION":14.98925947,"ECCENTRICITY":0.0328736,"INCLINATION":49.8313,"RA_OF_ASC_NODE":52.6569,"ARG_OF_PERICENTER":242.4792,"MEAN_ANOMALY":114.2388,"EPHEMERIS_TYPE":0,"CLASSIFICATION_TYPE":"U","NORAD_CAT_ID":67720,"ELEMENT_SET_NO":999,"REV_AT_EPOCH":361,"BSTAR":0.0037157373,"MEAN_MOTION_DOT":0.00148745,"MEAN_MOTION_DDOT":0},{"OBJECT_NAME":"STARLINK-36772","OBJECT_ID":"2026-026A","EPOCH":"2026-03-03T18:00:01.999296","MEAN_MOTION":15.71334079,"ECCENTRICITY":0.0001511,"INCLINATION":97.2843,"RA_OF_ASC_NODE":117.1164,"ARG_OF_PERICENTER":73.1201,"MEAN_ANOMALY":322.2894,"EPHEMERIS_TYPE":0,"CLASSIFICATION_TYPE":"U","NORAD_CAT_ID":67721,"ELEMENT_SET_NO":999,"REV_AT_EPOCH":435,"BSTAR":-0.017957,"MEAN_MOTION_DOT":-0.02007302,"MEAN_MOTION_DDOT":0},{"OBJECT_NAME":"STARLINK-36796","OBJECT_ID":"2026-026B","EPOCH":"2026-03-03T18:00:01.999296","MEAN_MOTION":15.70461463,"ECCENTRICITY":0.0001539,"INCLINATION":97.2842,"RA_OF_ASC_NODE":117.1166,"ARG_OF_PERICENTER":75.707,"MEAN_ANOMALY":319.9715,"EPHEMERIS_TYPE":0,"CLASSIFICATION_TYPE":"U","NORAD_CAT_ID":67722,"ELEMENT_SET_NO":999,"REV_AT_EPOCH":435,"BSTAR":-0.018625,"MEAN_MOTION_DOT":-0.02006934,"MEAN_MOTION_DDOT":0},{"OBJECT_NAME":"STARLINK-36369","OBJECT_ID":"2026-026C","EPOCH":"2026-03-03T18:00:01.999296","MEAN_MOTION":15.70864423,"ECCENTRICITY":0.0001581,"INCLINATION":97.2844,"RA_OF_ASC_NODE":117.1208,"ARG_OF_PERICENTER":72.4705,"MEAN_ANOMALY":332.548,"EPHEMERIS_TYPE":0,"CLASSIFICATION_TYPE":"U","NORAD_CAT_ID":67723,"ELEMENT_SET_NO":999,"REV_AT_EPOCH":435,"BSTAR":-0.018325,"MEAN_MOTION_DOT":-0.02008237,"MEAN_MOTION_DDOT":0},{"OBJECT_NAME":"STARLINK-36752","OBJECT_ID":"2026-026D","EPOCH":"2026-03-03T18:00:01.999296","MEAN_MOTION":15.72158938,"ECCENTRICITY":0.000165,"INCLINATION":97.2842,"RA_OF_ASC_NODE":117.1286,"ARG_OF_PERICENTER":73.2922,"MEAN_ANOMALY":349.7057,"EPHEMERIS_TYPE":0,"CLASSIFICATION_TYPE":"U","NORAD_CAT_ID":67724,"ELEMENT_SET_NO":999,"REV_AT_EPOCH":435,"BSTAR":-0.017385,"MEAN_MOTION_DOT":-0.02012068,"MEAN_MOTION_DDOT":0},{"OBJECT_NAME":"STARLINK-36754","OBJECT_ID":"2026-026E","EPOCH":"2026-03-03T18:00:01.999296","MEAN_MOTION":15.6957129,"ECCENTRICITY":0.0001592,"INCLINATION":97.2842,"RA_OF_ASC_NODE":117.1217,"ARG_OF_PERICENTER":73.1839,"MEAN_ANOMALY":333.7422,"EPHEMERIS_TYPE":0,"CLASSIFICATION_TYPE":"U","NORAD_CAT_ID":67725,"ELEMENT_SET_NO":999,"REV_AT_EPOCH":435,"BSTAR":-0.019316,"MEAN_MOTION_DOT":-0.02005704,"MEAN_MOTION_DDOT":0},{"OBJECT_NAME":"STARLINK-36755","OBJECT_ID":"2026-026F","EPOCH":"2026-03-03T18:00:01.999296","MEAN_MOTION":15.67119724,"ECCENTRICITY":0.0001485,"INCLINATION":97.2845,"RA_OF_ASC_NODE":117.1137,"ARG_OF_PERICENTER":76.7773,"MEAN_ANOMALY":311.6087,"EPHEMERIS_TYPE":0,"CLASSIFICATION_TYPE":"U","NORAD_CAT_ID":67726,"ELEMENT_SET_NO":999,"REV_AT_EPOCH":435,"BSTAR":-0.02129,"MEAN_MOTION_DOT":-0.01999259,"MEAN_MOTION_DDOT":0},{"OBJECT_NAME":"STARLINK-36741","OBJECT_ID":"2026-026G","EPOCH":"2026-03-03T18:00:01.999296","MEAN_MOTION":15.6824665,"ECCENTRICITY":0.0001562,"INCLINATION":97.2843,"RA_OF_ASC_NODE":117.1213,"ARG_OF_PERICENTER":74.4276,"MEAN_ANOMALY":331.5774,"EPHEMERIS_TYPE":0,"CLASSIFICATION_TYPE":"U","NORAD_CAT_ID":67727,"ELEMENT_SET_NO":999,"REV_AT_EPOCH":435,"BSTAR":-0.020372,"MEAN_MOTION_DOT":-0.02002912,"MEAN_MOTION_DDOT":0},{"OBJECT_NAME":"STARLINK-36757","OBJECT_ID":"2026-026H","EPOCH":"2026-03-03T18:00:01.999296","MEAN_MOTION":15.72720925,"ECCENTRICITY":0.0001678,"INCLINATION":97.284,"RA_OF_ASC_NODE":117.1407,"ARG_OF_PERICENTER":72.8228,"MEAN_ANOMALY":19.7346,"EPHEMERIS_TYPE":0,"CLASSIFICATION_TYPE":"U","NORAD_CAT_ID":67728,"ELEMENT_SET_NO":999,"REV_AT_EPOCH":435,"BSTAR":-0.016997,"MEAN_MOTION_DOT":-0.02014534,"MEAN_MOTION_DDOT":0},{"OBJECT_NAME":"STARLINK-36751","OBJECT_ID":"2026-026J","EPOCH":"2026-03-03T18:00:01.999296","MEAN_MOTION":15.73286829,"ECCENTRICITY":0.0001806,"INCLINATION":97.2838,"RA_OF_ASC_NODE":117.1483,"ARG_OF_PERICENTER":72.5204,"MEAN_ANOMALY":37.9443,"EPHEMERIS_TYPE":0,"CLASSIFICATION_TYPE":"U","NORAD_CAT_ID":67729,"ELEMENT_SET_NO":999,"REV_AT_EPOCH":435,"BSTAR":-0.01658,"MEAN_MOTION_DOT":-0.02013692,"MEAN_MOTION_DDOT":0},{"OBJECT_NAME":"STARLINK-36747","OBJECT_ID":"2026-026K","EPOCH":"2026-03-03T18:00:01.999296","MEAN_MOTION":15.7318701,"ECCENTRICITY":0.0001763,"INCLINATION":97.2838,"RA_OF_ASC_NODE":117.1446,"ARG_OF_PERICENTER":73.5496,"MEAN_ANOMALY":27.71,"EPHEMERIS_TYPE":0,"CLASSIFICATION_TYPE":"U","NORAD_CAT_ID":67730,"ELEMENT_SET_NO":999,"REV_AT_EPOCH":435,"BSTAR":-0.016654,"MEAN_MOTION_DOT":-0.02013932,"MEAN_MOTION_DDOT":0},{"OBJECT_NAME":"STARLINK-36315","OBJECT_ID":"2026-026L","EPOCH":"2026-03-03T18:00:01.999296","MEAN_MOTION":15.73463523,"ECCENTRICITY":0.000175,"INCLINATION":97.2838,"RA_OF_ASC_NODE":117.1515,"ARG_OF_PERICENTER":80.4564,"MEAN_ANOMALY":36.6212,"EPHEMERIS_TYPE":0,"CLASSIFICATION_TYPE":"U","NORAD_CAT_ID":67731,"ELEMENT_SET_NO":999,"REV_AT_EPOCH":435,"BSTAR":-0.016452,"MEAN_MOTION_DOT":-0.01971927,"MEAN_MOTION_DDOT":0},{"OBJECT_NAME":"STARLINK-36260","OBJECT_ID":"2026-026M","EPOCH":"2026-03-03T18:00:01.999296","MEAN_MOTION":15.73843338,"ECCENTRICITY":0.0001816,"INCLINATION":97.2838,"RA_OF_ASC_NODE":117.155,"ARG_OF_PERICENTER":75.6623,"MEAN_ANOMALY":50.4945,"EPHEMERIS_TYPE":0,"CLASSIFICATION_TYPE":"U","NORAD_CAT_ID":67732,"ELEMENT_SET_NO":999,"REV_AT_EPOCH":435,"BSTAR":-0.016184,"MEAN_MOTION_DOT":-0.01972075,"MEAN_MOTION_DDOT":0},{"OBJECT_NAME":"STARLINK-36746","OBJECT_ID":"2026-026N","EPOCH":"2026-03-03T18:00:01.999296","MEAN_MOTION":15.53654803,"ECCENTRICITY":0.0001937,"INCLINATION":97.2839,"RA_OF_ASC_NODE":117.035,"ARG_OF_PERICENTER":80.7404,"MEAN_ANOMALY":115.6851,"EPHEMERIS_TYPE":0,"CLASSIFICATION_TYPE":"U","NORAD_CAT_ID":67733,"ELEMENT_SET_NO":999,"REV_AT_EPOCH":435,"BSTAR":-0.03421,"MEAN_MOTION_DOT":-0.01922528,"MEAN_MOTION_DDOT":0}]
