STARLINK-36385          
1 67717U 26025AA  26062.82073836  .00395645  00000+0  19703-2 0  9999
2 67717  97.2863 174.2200 0001113  62.9835 297.1546 15.80856754  5020
CZ-2F DEB               
1 67718U 26024E   26058.50732833  .00191604  00000+0  35886-2 0  9997
2 67718  50.3169  68.5830 0246509 240.0171 117.6115 15.20915897  3086
CZ-2F DEB               
1 67719U 26024F   26062.43051244  .00154944  00000+0  37659-2 0  9991
2 67719  49.7921  52.0253 0317922 246.3783 110.3486 15.01613849  3305
CZ-2F DEB               
1 67720U 26024G   26062.40699199  .00148745  00000+0  37157-2 0  9992
2 67720  49.8313  52.6569 0328736 242.4792 114.2388 14.98925947  3619
STARLINK-36772          
1 67721U 26026A   26062.75002314 -.02007302  00000+0 -17957-1 0  9992
2 67721  97.2843 117.1164 0001511  73.1201 322.2894 15.71334079  4353
STARLINK-36796          
1 67722U 26026B   26062.75002314 -.02006934  00000+0 -18625-1 0  9996
2 67722  97.2842 117.1166 0001539  75.7070 319.9715 15.70461463  4359
STARLINK-36369          
1 67723U 26026C   26062.75002314 -.02008237  00000+0 -18325-1 0  9992
2 67723  97.2844 117.1208 0001581  72.4705 332.5480 15.70864423  4358
STARLINK-36752          
1 67724U 26026D   26062.75002314 -.02012068  00000+0 -17385-1 0  9995
2 67724  97.2842 117.1286 0001650  73.2922 349.7057 15.72158938  4359
STARLINK-36754          
1 67725U 26026E   26062.75002314 -.02005704  00000+0 -19316-1 0  9991
2 67725  97.2842 117.1217 0001592  73.1839 333.7422 15.69571290  4350
STARLINK-36755          
1 67726U 26026F   26062.75002314 -.01999259  00000+0 -21290-1 0  9992
2 67726  97.2845 117.1137 0001485  76.7773 311.6087 15.67119724  4352
STARLINK-36741          
1 67727U 26026G   26062.75002314 -.02002912  00000+0 -20372-1 0  9995
2 67727  97.2843 117.1213 0001562  74.4276 331.5774 15.68246650  4359
STARLINK-36757          
1 67728U 26026H   26062.75002314 -.02014534  00000+0 -16997-1 0  9997
2 67728  97.2840 117.1407 0001678  72.8228  19.7346 15.72720925  4356
STARLINK-36751          
1 67729U 26026J   26062.75002314 -.02013692  00000+0 -16580-1 0  9990
2 67729  97.2838 117.1483 0001806  72.5204  37.9443 15.73286829  4353
STARLINK-36747          
1 67730U 26026K   26062.75002314 -.02013932  00000+0 -16654-1 0  9991
2 67730  97.2838 117.1446 0001763  73.5496  27.7100 15.73187010  4359
STARLINK-36315          
1 67731U 26026L   26062.75002314 -.01971927  00000+0 -16452-1 0  9994
2 67731  97.2838 117.1515 0001750  80.4564  36.6212 15.73463523  4355
STARLINK-36260          
1 67732U 26026M   26062.75002314 -.01972075  00000+0 -16184-1 0  9992
2 67732  97.2838 117.1550 0001816  75.6623  50.4945 15.73843338  4353
STARLINK-36746          
1 67733U 26026N   26062.75002314 -.01922528  00000+0 -34210-1 0  9991
2 67733  97.2839 117.0350 0001937  80.7404 115.6851 15.53654803  4355
